[{"OBJECT_NAME":"STARLINK-32139","OBJECT_ID":"2024-183B","EPOCH":"2026-03-09T12:09:32.296320","MEAN_MOTION":15.30188631,"ECCENTRICITY":9.564e-5,"INCLINATION":53.1581,"RA_OF_ASC_NODE":143.3584,"ARG_OF_PERICENTER":116.4481,"MEAN_ANOMALY":243.6618,"EPHEMERIS_TYPE":0,"CLASSIFICATION_TYPE":"U","NORAD_CAT_ID":61510,"ELEMENT_SET_NO":999,"REV_AT_EPOCH":7962,"BSTAR":-1.6468453e-5,"MEAN_MOTION_DOT":-8.46e-6,"MEAN_MOTION_DDOT":0},{"OBJECT_NAME":"COSMOS 1869","OBJECT_ID":"1987-062A","EPOCH":"2026-03-09T20:30:29.271744","MEAN_MOTION":15.35392408,"ECCENTRICITY":0.00185772,"INCLINATION":82.5127,"RA_OF_ASC_NODE":201.6716,"ARG_OF_PERICENTER":61.4986,"MEAN_ANOMALY":298.8125,"EPHEMERIS_TYPE":0,"CLASSIFICATION_TYPE":"U","NORAD_CAT_ID":18214,"ELEMENT_SET_NO":999,"REV_AT_EPOCH":8931,"BSTAR":0.00042037944,"MEAN_MOTION_DOT":0.00014573,"MEAN_MOTION_DDOT":0}]
